[{"OBJECT_NAME":"SKYSAT-C1","OBJECT_ID":"2016-040C","EPOCH":"2026-03-09T15:15:21.003264","MEAN_MOTION":15.34511288,"ECCENTRICITY":0.0003572,"INCLINATION":96.9702,"RA_OF_ASC_NODE":105.8064,"ARG_OF_PERICENTER":53.5203,"MEAN_ANOMALY":306.6369,"EPHEMERIS_TYPE":0,"CLASSIFICATION_TYPE":"U","NORAD_CAT_ID":41601,"ELEMENT_SET_NO":999,"REV_AT_EPOCH":54259,"BSTAR":0.00032561,"MEAN_MOTION_DOT":0.00010818,"MEAN_MOTION_DDOT":0},{"OBJECT_NAME":"STARLINK-35722","OBJECT_ID":"2025-244N","EPOCH":"2026-03-09T16:56:13.108992","MEAN_MOTION":15.31300028,"ECCENTRICITY":0.00091815,"INCLINATION":53.16,"RA_OF_ASC_NODE":229.7194,"ARG_OF_PERICENTER":146.9205,"MEAN_ANOMALY":213.2373,"EPHEMERIS_TYPE":0,"CLASSIFICATION_TYPE":"U","NORAD_CAT_ID":66218,"ELEMENT_SET_NO":999,"REV_AT_EPOCH":2166,"BSTAR":0.001827358,"MEAN_MOTION_DOT":0.00056123,"MEAN_MOTION_DDOT":0}]
