SKYSAT-C1               
1 41601U 16040C   26068.63565976  .00010818  00000+0  32561-3 0  9999
2 41601  96.9702 105.8064 0003572  53.5203 306.6369 15.34511288542592
STARLINK-35722          
1 66218U 25244N   26068.70570728  .00056123  00000+0  18274-2 0  9998
2 66218  53.1600 229.7194 0009181 146.9205 213.2373 15.31300028 21669
